CCSDS_OMM_VERS = 2.0
CREATION_DATE  = 
ORIGINATOR     = 

OBJECT_NAME    = UNKNOWN
OBJECT_ID      = 
CENTER_NAME    = EARTH
REF_FRAME      = TEME
TIME_SYSTEM    = UTC
MEAN_ELEMENT_THEORY = SGP/SGP4

EPOCH          = 2026-01-21T16:55:26.812416
MEAN_MOTION    = 14.15221725
ECCENTRICITY   = .0377988
INCLINATION    = 98.6802
RA_OF_ASC_NODE = 9.0792
ARG_OF_PERICENTER = 168.2293
MEAN_ANOMALY   = 192.8032

EPHEMERIS_TYPE = 0
CLASSIFICATION_TYPE = U
NORAD_CAT_ID   = 82875
ELEMENT_SET_NO = 999
REV_AT_EPOCH   = 55012
BSTAR          = .23193E-3
MEAN_MOTION_DOT = .851E-5
MEAN_MOTION_DDOT = 0

CCSDS_OMM_VERS = 2.0
CREATION_DATE  = 
ORIGINATOR     = 

OBJECT_NAME    = UNKNOWN
OBJECT_ID      = 
CENTER_NAME    = EARTH
REF_FRAME      = TEME
TIME_SYSTEM    = UTC
MEAN_ELEMENT_THEORY = SGP/SGP4

EPOCH          = 2026-01-22T06:32:14.846784
MEAN_MOTION    = 14.32385127
ECCENTRICITY   = .002484
INCLINATION    = 98.9601
RA_OF_ASC_NODE = 143.6836
ARG_OF_PERICENTER = 277.7596
MEAN_ANOMALY   = 82.0766

EPHEMERIS_TYPE = 0
CLASSIFICATION_TYPE = U
NORAD_CAT_ID   = 82893
ELEMENT_SET_NO = 999
REV_AT_EPOCH   = 42977
BSTAR          = .48163E-2
MEAN_MOTION_DOT = .13043E-3
MEAN_MOTION_DDOT = 0

CCSDS_OMM_VERS = 2.0
CREATION_DATE  = 
ORIGINATOR     = 

OBJECT_NAME    = UNKNOWN
OBJECT_ID      = 
CENTER_NAME    = EARTH
REF_FRAME      = TEME
TIME_SYSTEM    = UTC
MEAN_ELEMENT_THEORY = SGP/SGP4

EPOCH          = 2026-01-22T09:39:32.557824
MEAN_MOTION    = 13.28031728
ECCENTRICITY   = .0775133
INCLINATION    = 65.8354
RA_OF_ASC_NODE = 80.5513
ARG_OF_PERICENTER = 250.4417
MEAN_ANOMALY   = 101.1389

EPHEMERIS_TYPE = 0
CLASSIFICATION_TYPE = U
NORAD_CAT_ID   = 82912
ELEMENT_SET_NO = 999
REV_AT_EPOCH   = 58472
BSTAR          = .28597E-2
MEAN_MOTION_DOT = .7034E-4
MEAN_MOTION_DDOT = 0

CCSDS_OMM_VERS = 2.0
CREATION_DATE  = 
ORIGINATOR     = 

OBJECT_NAME    = UNKNOWN
OBJECT_ID      = 
CENTER_NAME    = EARTH
REF_FRAME      = TEME
TIME_SYSTEM    = UTC
MEAN_ELEMENT_THEORY = SGP/SGP4

EPOCH          = 2026-01-14T04:24:57.138624
MEAN_MOTION    = 13.24178156
ECCENTRICITY   = .0415741
INCLINATION    = 99.8544
RA_OF_ASC_NODE = 172.0207
ARG_OF_PERICENTER = 285.1784
MEAN_ANOMALY   = 70.3726

EPHEMERIS_TYPE = 0
CLASSIFICATION_TYPE = U
NORAD_CAT_ID   = 82961
ELEMENT_SET_NO = 999
REV_AT_EPOCH   = 56000
BSTAR          = .15746E-1
MEAN_MOTION_DOT = .10659E-3
MEAN_MOTION_DDOT = 0

CCSDS_OMM_VERS = 2.0
CREATION_DATE  = 
ORIGINATOR     = 

OBJECT_NAME    = UNKNOWN
OBJECT_ID      = 
CENTER_NAME    = EARTH
REF_FRAME      = TEME
TIME_SYSTEM    = UTC
MEAN_ELEMENT_THEORY = SGP/SGP4

EPOCH          = 2026-01-18T00:36:27.338688
MEAN_MOTION    = 13.60089172
ECCENTRICITY   = .0002263
INCLINATION    = 100.1135
RA_OF_ASC_NODE = 103.7302
ARG_OF_PERICENTER = 184.2810
MEAN_ANOMALY   = 175.8309

EPHEMERIS_TYPE = 0
CLASSIFICATION_TYPE = U
NORAD_CAT_ID   = 82965
ELEMENT_SET_NO = 999
REV_AT_EPOCH   = 52938
BSTAR          = .1304E-2
MEAN_MOTION_DOT = .927E-5
MEAN_MOTION_DDOT = 0

CCSDS_OMM_VERS = 2.0
CREATION_DATE  = 
ORIGINATOR     = 

OBJECT_NAME    = UNKNOWN
OBJECT_ID      = 
CENTER_NAME    = EARTH
REF_FRAME      = TEME
TIME_SYSTEM    = UTC
MEAN_ELEMENT_THEORY = SGP/SGP4

EPOCH          = 2026-01-22T01:32:27.113280
MEAN_MOTION    = 0.99113579
ECCENTRICITY   = .0122784
INCLINATION    = 6.0839
RA_OF_ASC_NODE = 290.2582
ARG_OF_PERICENTER = 252.7141
MEAN_ANOMALY   = 256.4605

EPHEMERIS_TYPE = 0
CLASSIFICATION_TYPE = U
NORAD_CAT_ID   = 83903
ELEMENT_SET_NO = 999
REV_AT_EPOCH   = 4406
BSTAR          = 0
MEAN_MOTION_DOT = -.204E-5
MEAN_MOTION_DDOT = 0

CCSDS_OMM_VERS = 2.0
CREATION_DATE  = 
ORIGINATOR     = 

OBJECT_NAME    = UNKNOWN
OBJECT_ID      = 
CENTER_NAME    = EARTH
REF_FRAME      = TEME
TIME_SYSTEM    = UTC
MEAN_ELEMENT_THEORY = SGP/SGP4

EPOCH          = 2026-01-21T20:53:01.383360
MEAN_MOTION    = 1.02662791
ECCENTRICITY   = .0227734
INCLINATION    = 5.6926
RA_OF_ASC_NODE = 297.2310
ARG_OF_PERICENTER = 274.9922
MEAN_ANOMALY   = 258.8501

EPHEMERIS_TYPE = 0
CLASSIFICATION_TYPE = U
NORAD_CAT_ID   = 83934
ELEMENT_SET_NO = 999
REV_AT_EPOCH   = 4569
BSTAR          = 0
MEAN_MOTION_DOT = -.64E-6
MEAN_MOTION_DDOT = 0

CCSDS_OMM_VERS = 2.0
CREATION_DATE  = 
ORIGINATOR     = 

OBJECT_NAME    = UNKNOWN
OBJECT_ID      = 
CENTER_NAME    = EARTH
REF_FRAME      = TEME
TIME_SYSTEM    = UTC
MEAN_ELEMENT_THEORY = SGP/SGP4

EPOCH          = 2026-01-14T01:37:02.461440
MEAN_MOTION    = 5.32545134
ECCENTRICITY   = .5070007
INCLINATION    = 18.2977
RA_OF_ASC_NODE = 182.4337
ARG_OF_PERICENTER = 212.4015
MEAN_ANOMALY   = 102.7031

EPHEMERIS_TYPE = 0
CLASSIFICATION_TYPE = U
NORAD_CAT_ID   = 83970
ELEMENT_SET_NO = 999
REV_AT_EPOCH   = 19793
BSTAR          = .49157E-2
MEAN_MOTION_DOT = .479E-4
MEAN_MOTION_DDOT = 0

CCSDS_OMM_VERS = 2.0
CREATION_DATE  = 
ORIGINATOR     = 

OBJECT_NAME    = UNKNOWN
OBJECT_ID      = 
CENTER_NAME    = EARTH
REF_FRAME      = TEME
TIME_SYSTEM    = UTC
MEAN_ELEMENT_THEORY = SGP/SGP4

EPOCH          = 2026-01-18T15:19:58.335168
MEAN_MOTION    = 2.16233529
ECCENTRICITY   = .6157293
INCLINATION    = 22.4045
RA_OF_ASC_NODE = 170.0076
ARG_OF_PERICENTER = 73.6607
MEAN_ANOMALY   = 342.6241

EPHEMERIS_TYPE = 0
CLASSIFICATION_TYPE = U
NORAD_CAT_ID   = 84006
ELEMENT_SET_NO = 999
REV_AT_EPOCH   = 8502
BSTAR          = 0
MEAN_MOTION_DOT = .59E-6
MEAN_MOTION_DDOT = 0

CCSDS_OMM_VERS = 2.0
CREATION_DATE  = 
ORIGINATOR     = 

OBJECT_NAME    = UNKNOWN
OBJECT_ID      = 
CENTER_NAME    = EARTH
REF_FRAME      = TEME
TIME_SYSTEM    = UTC
MEAN_ELEMENT_THEORY = SGP/SGP4

EPOCH          = 2026-01-21T19:38:29.116320
MEAN_MOTION    = 7.87378171
ECCENTRICITY   = .3625179
INCLINATION    = 65.0311
RA_OF_ASC_NODE = 222.4584
ARG_OF_PERICENTER = 14.3088
MEAN_ANOMALY   = 353.7650

EPHEMERIS_TYPE = 0
CLASSIFICATION_TYPE = U
NORAD_CAT_ID   = 84188
ELEMENT_SET_NO = 999
REV_AT_EPOCH   = 4436
BSTAR          = .24249E+0
MEAN_MOTION_DOT = .591225E-2
MEAN_MOTION_DDOT = 0

CCSDS_OMM_VERS = 2.0
CREATION_DATE  = 
ORIGINATOR     = 

OBJECT_NAME    = UNKNOWN
OBJECT_ID      = 
CENTER_NAME    = EARTH
REF_FRAME      = TEME
TIME_SYSTEM    = UTC
MEAN_ELEMENT_THEORY = SGP/SGP4

EPOCH          = 2026-01-19T06:35:15.179136
MEAN_MOTION    = 3.18359520
ECCENTRICITY   = .6553043
INCLINATION    = 20.3107
RA_OF_ASC_NODE = 252.5071
ARG_OF_PERICENTER = 103.4393
MEAN_ANOMALY   = 332.4449

EPHEMERIS_TYPE = 0
CLASSIFICATION_TYPE = U
NORAD_CAT_ID   = 84232
ELEMENT_SET_NO = 999
REV_AT_EPOCH   = 10588
BSTAR          = .16754E-1
MEAN_MOTION_DOT = .20474E-3
MEAN_MOTION_DDOT = 0

CCSDS_OMM_VERS = 2.0
CREATION_DATE  = 
ORIGINATOR     = 

OBJECT_NAME    = UNKNOWN
OBJECT_ID      = 
CENTER_NAME    = EARTH
REF_FRAME      = TEME
TIME_SYSTEM    = UTC
MEAN_ELEMENT_THEORY = SGP/SGP4

EPOCH          = 2026-01-22T07:58:54.200928
MEAN_MOTION    = 2.62586913
ECCENTRICITY   = .6892554
INCLINATION    = 9.3981
RA_OF_ASC_NODE = 317.0517
ARG_OF_PERICENTER = 130.1539
MEAN_ANOMALY   = 314.1979

EPHEMERIS_TYPE = 0
CLASSIFICATION_TYPE = U
NORAD_CAT_ID   = 84236
ELEMENT_SET_NO = 999
REV_AT_EPOCH   = 11504
BSTAR          = .66225E-2
MEAN_MOTION_DOT = .1033E-4
MEAN_MOTION_DDOT = 0

CCSDS_OMM_VERS = 2.0
CREATION_DATE  = 
ORIGINATOR     = 

OBJECT_NAME    = UNKNOWN
OBJECT_ID      = 
CENTER_NAME    = EARTH
REF_FRAME      = TEME
TIME_SYSTEM    = UTC
MEAN_ELEMENT_THEORY = SGP/SGP4

EPOCH          = 2026-01-22T12:16:40.114560
MEAN_MOTION    = 6.21848899
ECCENTRICITY   = .4561633
INCLINATION    = 23.8202
RA_OF_ASC_NODE = 103.8677
ARG_OF_PERICENTER = 338.2266
MEAN_ANOMALY   = 7.3882

EPHEMERIS_TYPE = 0
CLASSIFICATION_TYPE = U
NORAD_CAT_ID   = 84292
ELEMENT_SET_NO = 999
REV_AT_EPOCH   = 23060
BSTAR          = .25126E-2
MEAN_MOTION_DOT = .4476E-4
MEAN_MOTION_DDOT = 0

CCSDS_OMM_VERS = 2.0
CREATION_DATE  = 
ORIGINATOR     = 

OBJECT_NAME    = UNKNOWN
OBJECT_ID      = 
CENTER_NAME    = EARTH
REF_FRAME      = TEME
TIME_SYSTEM    = UTC
MEAN_ELEMENT_THEORY = SGP/SGP4

EPOCH          = 2026-01-08T05:15:04.591296
MEAN_MOTION    = 12.67381377
ECCENTRICITY   = .0042055
INCLINATION    = 101.7141
RA_OF_ASC_NODE = 157.7019
ARG_OF_PERICENTER = 340.3466
MEAN_ANOMALY   = 199.3092

EPHEMERIS_TYPE = 0
CLASSIFICATION_TYPE = U
NORAD_CAT_ID   = 84406
ELEMENT_SET_NO = 999
REV_AT_EPOCH   = 5264
BSTAR          = .43231E-2
MEAN_MOTION_DOT = .785E-5
MEAN_MOTION_DDOT = 0

CCSDS_OMM_VERS = 2.0
CREATION_DATE  = 
ORIGINATOR     = 

OBJECT_NAME    = UNKNOWN
OBJECT_ID      = 
CENTER_NAME    = EARTH
REF_FRAME      = TEME
TIME_SYSTEM    = UTC
MEAN_ELEMENT_THEORY = SGP/SGP4

EPOCH          = 2026-01-16T22:09:35.551296
MEAN_MOTION    = 2.05777016
ECCENTRICITY   = .7202436
INCLINATION    = 19.4644
RA_OF_ASC_NODE = 312.1530
ARG_OF_PERICENTER = 80.6851
MEAN_ANOMALY   = 347.5491

EPHEMERIS_TYPE = 0
CLASSIFICATION_TYPE = U
NORAD_CAT_ID   = 84407
ELEMENT_SET_NO = 999
REV_AT_EPOCH   = 7659
BSTAR          = .12077E-1
MEAN_MOTION_DOT = .26E-5
MEAN_MOTION_DDOT = 0

CCSDS_OMM_VERS = 2.0
CREATION_DATE  = 
ORIGINATOR     = 

OBJECT_NAME    = UNKNOWN
OBJECT_ID      = 
CENTER_NAME    = EARTH
REF_FRAME      = TEME
TIME_SYSTEM    = UTC
MEAN_ELEMENT_THEORY = SGP/SGP4

EPOCH          = 2026-01-18T16:21:34.855488
MEAN_MOTION    = 2.19881415
ECCENTRICITY   = .7104505
INCLINATION    = 18.0546
RA_OF_ASC_NODE = 146.3005
ARG_OF_PERICENTER = 44.8612
MEAN_ANOMALY   = 353.9722

EPHEMERIS_TYPE = 0
CLASSIFICATION_TYPE = U
NORAD_CAT_ID   = 84575
ELEMENT_SET_NO = 999
REV_AT_EPOCH   = 6627
BSTAR          = -.11972E-1
MEAN_MOTION_DOT = -.262E-5
MEAN_MOTION_DDOT = 0

